{"type":"FeatureCollection","features":[{"type":"Feature","properties":{"kind":"neighbor"},"geometry":{"type":"Polygon","coordinates":[[[43.5,24],[64.5,24],[64.5,40.5],[43.5,40.5],[43.5,24]],[[44.806992829255705,39.63990171239419],[44.8722786869119,39.62507598916562],[44.957028035615394,39.434493306920615],[45.08797611540547,39.35072581014805],[45.15272668488865,39.21352488266723],[45.31111494999499,39.20052825997129],[45.43451827000223,39.052785340071466],[45.43860070825616,39.00423533059609],[46.12605228558459,38.86266774492054],[46.3782332768443,38.92470530260766],[46.55372644042296,38.88982371029607],[46.866162149963316,39.16536244771885],[47.02046797681572,39.189960429130565],[47.102220092883044,39.30840281174045],[47.29135583520366,39.37961293538871],[47.406904337964875,39.47681630442895],[47.54115970875358,39.51516021737018],[47.82310632259879,39.68031809500411],[47.971417684178846,39.70455434210925],[48.33894047082612,39.37894114182029],[48.153525431553476,39.31904815694696],[48.1061898198044,39.269180399655795],[48.14215661593511,39.18120127431939],[48.271296020594946,39.10831166585075],[48.30679772963157,39.045395609919524],[48.29367191572641,39.00459706670131],[48.05854414879349,38.94837310803257],[47.99074466983069,38.891218974276285],[47.99312178574189,38.85008453427389],[48.22297855601562,38.72146189355158],[48.22804284709974,38.6621890263026],[48.31031172710459,38.60015147041406],[48.41526656060336,38.61810902960809],[48.60786462355361,38.39597788537117],[48.777725057065766,38.44481211388802],[48.87427819108569,38.434068101361845],[48.87484785224666,38.2427432311153],[48.94450931095599,37.90338776223547],[49.014496290071804,37.73916250224772],[49.13249759209026,37.62335846612035],[49.44174238380401,37.49485911705466],[49.8261824883312,37.45355866130325],[49.93376712295441,37.474432684121155],[50.19564863437705,37.38934967704603],[50.32227623795808,37.15326569155849],[50.47885175940121,37.03497955895955],[51.004730664888314,36.76764557488343],[51.9090275401889,36.58270905228102],[53.447601759313784,36.88190338683188],[53.885915561254194,36.90582916908096],[54.00652103012152,36.95262278911048],[54.00424238367913,36.91461823084671],[53.94760175921385,36.898749090797935],[53.60914147190147,36.87689850496207],[53.70101972667908,36.81659577007878],[53.8891707689159,36.79360586102172],[54.014333529768635,36.82111237223825],[54.03353925892969,36.94912343979496],[53.99439537924343,36.97915273640973],[54.02003014407592,37.02773672137266],[53.913747591977824,37.342759507045685],[54.20643762209863,37.324596253114635],[54.533342732681035,37.440816549444264],[54.653955525627055,37.438904520627204],[54.78831425010259,37.524635722160895],[54.80939823404134,37.6033389287486],[54.78728072132827,37.651863098003616],[54.8266581621445,37.73526885957028],[55.13030887755269,37.952309876099946],[55.44739546702726,38.08367136703998],[55.708671508983,38.11865631123982],[55.96302290878026,38.06651479082501],[56.29974654136987,38.0802348839328],[56.32899540181637,38.12377227826806],[56.30336389163034,38.17942779615589],[56.43648238085723,38.25508209236472],[56.585207153587305,38.23456654920693],[56.729384399170726,38.271050110174485],[57.03840946492494,38.18728261340192],[57.17493859883734,38.27756134028368],[57.21834680196338,38.265081482424534],[57.344333942557455,38.08106170713211],[57.32707401535356,37.994116109670756],[57.35239546717713,37.967528585076195],[57.49626265439804,37.92231170681987],[57.69118615731537,37.9202704876929],[57.80001672259374,37.86763804176229],[58.15668745935881,37.78818552724033],[58.20681359906837,37.67873484343835],[58.35781213402282,37.63331125960701],[58.47966516131817,37.644111634444414],[58.529791300128466,37.700387268157954],[58.68172001106973,37.64271636956488],[58.77980188015272,37.65964040178318],[58.80109256966642,37.69465118440468],[59.0345666911,37.62452626457548],[59.21171350107727,37.51631581692146],[59.31227583795959,37.53034596659313],[59.35630415871003,37.48063323983223],[59.370360148602,37.31942860924295],[59.46937219277254,37.2406995651329],[59.4617240802022,37.207600810429085],[59.555981893449655,37.197782288421934],[59.60497115069808,37.12388498960064],[59.65323693843402,37.14967152941762],[60.01920943236945,37.02580312141697],[60.342290487116315,36.637144673987564],[61.165806112162386,36.63631785078826],[61.18761356741226,36.565107727139946],[61.14668583208555,36.35726511679178],[61.22471724420552,36.1236876425707],[61.12983931513236,35.97051869728011],[61.24104699722119,35.89388254824104],[61.256343220563224,35.7694973754036],[61.23174523915151,35.67188059521334],[61.29003625536893,35.54806386315681],[61.19505497260894,35.390089010099814],[61.18709680167609,35.30037872309964],[61.10834191914432,35.277951152024116],[61.09635298680098,35.1932018024213],[61.147305948810526,35.10209625234023],[61.07475223802544,34.933114318870764],[61.06545047995576,34.81472361310432],[60.95992720567608,34.72320465097391],[60.94752486218272,34.63799021427701],[60.69968469159528,34.51639556940006],[60.89047408031462,34.31891408341829],[60.64366744030019,34.30664093023478],[60.49277225723392,34.13902842232386],[60.52801558475147,33.84144968655386],[60.48688114474908,33.71138010680653],[60.51178918542263,33.6383871464497],[60.65555301895671,33.55989064543701],[60.84603234841421,33.555782369660676],[60.920859822322996,33.51410532639977],[60.832183064996514,33.48449473074726],[60.82908247867351,33.4162818406345],[60.56759973114271,33.151285095630726],[60.56294885300724,33.05826751763186],[60.83032271302284,32.24888539684366],[60.814819783206474,32.08786163340773],[60.774925577553404,32.02719350217842],[60.82174442536501,31.494667868427427],[61.686911255250266,31.373176575438663],[61.7423083907197,31.32088002539291],[61.74272180186972,31.23954132137493],[61.826437621798846,31.014955545961755],[61.80225305243647,30.847058818110042],[60.84437870291487,29.85817860985503],[61.33737186711801,29.37438385003469],[61.33282434087067,29.274906717870806],[61.39793664555981,29.159073995168797],[61.48775028534743,29.080655009421207],[61.46800988764625,29.041742655699068],[61.56650516787926,28.87097788642035],[61.89279016083731,28.542599996592628],[62.362787313184015,28.418886617323608],[62.57564253777298,28.22902740459108],[62.761522664139704,28.24644236232524],[62.73568444837866,27.994984843275972],[62.81469771332888,27.494963684126787],[62.75604496280482,27.348099263370386],[62.77878259314224,27.299833475634443],[62.74235070811875,27.26681223619579],[62.89241906708634,27.213482157375722],[63.17710453294791,27.258440654112974],[63.271258993407855,27.20340525295012],[63.31962813303198,27.117312317109793],[63.26092370656386,27.115606994767063],[63.231364786855465,27.0658425902634],[63.26485111518684,26.89003936832222],[63.18227217592022,26.830249735337077],[63.16377201256836,26.64509307758351],[62.75356449410617,26.64416290339534],[62.701939737628834,26.60401031532382],[62.418494507015964,26.562307435439834],[62.29199060068572,26.501225891261925],[62.24899580870965,26.41652821940187],[62.265118856150366,26.36097605430149],[62.123835490415615,26.373998515419203],[62.09417321791972,26.314829000058353],[61.83294885280736,26.22537709457731],[61.75450402863805,25.819975484780855],[61.660349569077425,25.769177552402198],[61.67636926283126,25.692799784882197],[61.643192992862396,25.613321431938573],[61.620041951375015,25.28548614536936],[61.58822675855811,25.202093816976117],[61.554453971873386,25.254095769803996],[61.558360222146575,25.200506902971256],[61.48259524817223,25.193670966342097],[61.524180535403445,25.173163152857285],[61.48951256625196,25.118597723006587],[61.420583529806095,25.096869208447288],[61.41171650311418,25.059408165354625],[61.18506823780899,25.12324917131224],[61.17026860930895,25.164440118416792],[61.03060957117481,25.209784247145365],[60.63347415460862,25.274969794420542],[60.601573113408506,25.40595123905848],[60.549652540232614,25.446926174403472],[60.445648633677536,25.42816803602608],[60.39527428468057,25.377875066681042],[60.467245868801854,25.29027590580847],[60.319223345181285,25.32985143129855],[60.289398634439465,25.37718333514283],[60.20150800868771,25.37116120042913],[60.20920954998081,25.319688555282653],[60.08203819290833,25.3659498171304],[59.90380595608008,25.329863349114305],[59.77487302586951,25.38986858286887],[59.53798983266472,25.399749989070813],[59.453901756361006,25.46160749259178],[59.04395592532575,25.39960358303898],[58.92351321666166,25.51337311437777],[58.82520592531324,25.560370184436522],[58.43051191539263,25.587958075304982],[58.418955924776185,25.61200592703193],[58.1704207689034,25.544094143430016],[58.07309003967367,25.56362539299755],[57.96322675860807,25.693182683833868],[57.88404381586946,25.691636459654944],[57.77173912905761,25.635565497249956],[57.78305097712098,25.699774480607857],[57.75562584735502,25.742743230915437],[57.520681185987996,25.743557032830836],[57.3115340496567,25.784125067218156],[57.25359134176705,25.95897044463038],[57.198578321132686,25.995021876858175],[57.1667586595845,26.082993882261917],[57.21290123790186,26.166245834577637],[57.13306725435035,26.263739324909977],[57.080332879259004,26.415350653409973],[57.0900171225922,26.61880117363529],[57.024912956767594,26.85097890795032],[56.92554772184991,26.95514557470858],[56.97331790489744,26.968817449765538],[56.97331790489744,27.002997137407988],[56.865489128620425,27.01186757972505],[56.84408613356828,27.04022858268297],[56.88461347723023,27.078070379844178],[56.80884850415521,27.13955312687534],[56.75733483193699,27.125230210106167],[56.353037957435845,27.201605535966735],[56.12370852982485,27.1606306006218],[55.939300976758716,27.02667877800326],[55.66586347741759,26.99542877761604],[55.55445397217312,26.899888414218992],[55.58236738434738,26.913560289276006],[55.58041425921073,26.859116928903177],[55.52173912905761,26.78457265780196],[55.442230665013255,26.759914455088108],[55.270843946191235,26.792547918551634],[55.20590253967055,26.72638580915782],[55.10328209709115,26.70132070458692],[54.79102623757086,26.4958356786737],[54.61996504005458,26.508246161031536],[54.56128990990146,26.584662176718155],[54.38941490957046,26.605129298578333],[54.30811608239134,26.714992579643877],[54.15040123772701,26.70819733284071],[54.01579837339625,26.74945709786681],[53.842784049844056,26.702093816676324],[53.71607506571178,26.708563543972446],[53.49154707084068,26.8543154970626],[53.444102409998266,26.975653387294017],[53.02865644583835,27.104071355808458],[52.732188346714906,27.301336981116833],[52.601328971554835,27.352932032986985],[52.57911217458724,27.39276764511078],[52.66651451883001,27.415350653210112],[52.67009524779752,27.448635158385912],[52.459646029840485,27.63263580869568],[52.24488365975316,27.681382553861795],[52.01124108181051,27.832709051781364],[51.683442877886534,27.830580872709163],[51.496423785329455,27.893040839263392],[51.428156011390854,27.961147005030284],[51.399875502252655,27.931713146844288],[51.26975927826811,28.14045357827007],[51.28532962306372,28.240912176555753],[51.1418563164159,28.400783596385907],[51.080739779617204,28.533921617088993],[51.058848503955346,28.735907293686694],[50.97868899819878,28.81663645970491],[50.87614993617069,28.83201732004335],[50.804860872731126,28.933579819952797],[50.823252799976785,28.996649480988822],[50.899261914705676,28.949448960001575],[50.92994225393193,29.054632879603787],[50.84034264379801,29.140611070044883],[50.64380944075316,29.143459376748865],[50.6357528003515,29.2077090517314],[50.66749108224769,29.25726959791365],[50.682627800033,29.24306875242104],[50.68946373756148,29.29083893366993],[50.661468945735294,29.318793035670126],[50.65528404991903,29.449123440394487],[50.45606530037338,29.634100652822895],[50.396983269262535,29.65473053578563],[50.243825716583615,29.866848049198154],[50.1448673844223,29.93805573118709],[50.12769616004982,30.120672919319816],[50.07341556077955,30.195746160856686],[49.91456139379335,30.203924871635593],[49.60075931099345,30.03009674706726],[49.532237174605996,30.022935289132363],[49.47982832082039,30.15607330893613],[49.245127800207854,30.1564802098938],[49.22120201885815,30.264553126925307],[49.161387566383155,30.223781643408188],[48.9211531907672,30.380764064909727],[49.06202233236479,30.408107815023698],[49.20289147216374,30.346625067093214],[49.26384524785993,30.44965241063028],[49.22828209714112,30.454413152644918],[49.21119225421921,30.506333725820866],[49.16822350391163,30.47699616074425],[49.16675866028402,30.50877513156712],[48.981455924751174,30.515611069994918],[48.94564863417719,30.479722397970363],[49.03728274820031,30.43252187698306],[48.93482506582416,30.418646551896927],[48.86231530041084,30.345607815148583],[48.86703535170017,30.29474518374326],[48.93604576869734,30.210109768351174],[48.91529381625668,30.042181708119358],[48.79135175917639,30.02448151241191],[48.64332115964385,30.055405992392707],[48.658702019082966,29.983628648343483],[48.61085045728282,29.95701731959366],[48.46430749559448,29.989126688745728],[48.38307214256537,30.138419901357395],[48.39702478056921,30.22099884062402],[48.29635909000007,30.31975250237616],[48.20008589694663,30.32393829341754],[48.14091638158578,30.44191558893334],[48.013585652955555,30.46387807201546],[48.012242065818725,30.989065653357272],[47.6729346108437,30.994698385222364],[47.67892907701537,31.407851461275982],[47.8344751382171,31.805708313088246],[47.57805668177048,32.106155090285256],[47.491343628305856,32.1486331183238],[47.509223673134045,32.213797098957],[47.402460165404364,32.323506165177434],[47.41083174658786,32.39528472960666],[47.26531091296829,32.48468495734494],[47.15255293816762,32.45517771358067],[47.0905928957456,32.47455637607595],[46.71588708542072,32.75601206530462],[46.479312377664144,32.8917918903835],[46.2734334720771,32.959488016558794],[46.097010131612365,32.95432037358643],[46.0757194420986,32.99449880007961],[46.12041955641746,33.06167816231738],[46.030295857368,33.10568064374678],[46.16718672558699,33.16833831815893],[46.15530114782979,33.26021901459592],[46.03623864759555,33.36793853763345],[45.974433634804484,33.490799255281445],[45.8525806084084,33.49436492959785],[45.92792484535539,33.55087310820744],[45.885963582153636,33.630919901931975],[45.73455163604922,33.58311920218949],[45.72111576378154,33.64076426236085],[45.64515140831088,33.69791839611713],[45.48578129037429,33.9386530555941],[45.38036136888212,33.973560486327415],[45.54453739458512,34.13949351031732],[45.52665734885761,34.17931020160455],[45.557559854803515,34.311963602838034],[45.46076989781261,34.34046315535039],[45.417051635424684,34.44435862255244],[45.503454631426166,34.49417470300017],[45.50066410256636,34.59168813130225],[45.701530395711245,34.55127716081239],[45.68762943455084,34.65323476167498],[45.62737471537088,34.72082753506277],[45.6667521561871,34.80692047180236],[45.74540368683074,34.84097524001538],[45.755118856050444,34.90996327738338],[45.85020349159794,34.90681101511632],[45.857024780069594,35.02127431225978],[45.91319706189495,35.087316792935724],[46.00921187342925,35.060910136393716],[46.15106367994491,35.111604715984924],[46.13039310715624,35.13139678963017],[46.169253784034936,35.216249492020495],[46.101454305072195,35.23428456558031],[46.12016117309969,35.3185171512456],[45.963994995172925,35.494165343555835],[45.98456221517415,35.53106231657273],[45.959344116138084,35.578707987583584],[45.999238321791154,35.572145080631],[46.00378584803849,35.67425771112454],[46.237880086197094,35.715547180757824],[46.327073608360365,35.803500468571826],[46.281391642110634,35.82830515555855],[46.163517700281716,35.797506002400155],[46.06042321785725,35.857243957642595],[45.74902103709127,35.8109935506119],[45.64685672975435,35.9332083131132],[45.539989868337784,35.99397979802933],[45.320313354377845,35.99403147397339],[45.34832197957576,36.08751413996566],[45.258508341586776,36.26223215808767],[45.28269291184847,36.27489288399943],[45.23887129757236,36.402998758985575],[45.072266479114774,36.423410950255175],[44.9913928630902,36.53374013320064],[45.035266154209694,36.689596252764886],[44.996198770856665,36.74168609633631],[44.82339278155166,36.80933054656754],[44.883440796055936,36.88684519474998],[44.88736820467898,37.01593292256638],[44.801895385563625,37.04352813841291],[44.75269942184087,37.103317769599414],[44.753526245040234,37.215326435566624],[44.80158532720117,37.29268605591682],[44.698025756783295,37.38004506542745],[44.5721419680774,37.430791320962726],[44.58743819141944,37.584011943096755],[44.54087772602628,37.63271698040438],[44.596119832764145,37.71638112438944],[44.50646122260741,37.77934885716405],[44.43643965556572,37.76779917439245],[44.433029011779524,37.80611724891196],[44.36714156073447,37.86022247318863],[44.20208703588804,37.89717112214964],[44.2275635173425,37.980990295765594],[44.360578653781886,38.14785349574231],[44.37241255739366,38.249501038242386],[44.45876387565238,38.33833282519976],[44.40905114709284,38.38179270426991],[44.28952355976452,38.382257792263374],[44.297016642703966,38.62232065907119],[44.24430668240751,38.65895924877037],[44.275002481879085,38.84357330326537],[44.20575606299195,38.87566436761654],[44.1519608970778,38.96462534578313],[44.18663578291512,39.14513112540118],[44.077701863949926,39.20006317197783],[44.06943363465456,39.28700876943918],[44.014863322384485,39.37408355721044],[44.176507203444714,39.411548971008244],[44.29494958515528,39.38121490494399],[44.38796716315409,39.414494527700356],[44.459487345164916,39.69845652315007],[44.56573408985639,39.76589426690697],[44.806992829255705,39.63990171239419]],[[54.526377799995544,26.30963776157347],[54.547373894090015,26.29043203331173],[54.521006706994,26.25096263231967],[54.48812910187661,26.29804108292967],[54.526377799995544,26.30963776157347]],[[54.03687584714271,26.488430079984255],[53.955414258861026,26.49258047101199],[53.90284264397292,26.536200262132468],[53.9454858729747,26.565090236425306],[54.01880944120279,26.555568752396084],[54.050466341648416,26.517767645060815],[54.03687584714271,26.488430079984255]],[[53.3171492851115,26.799994207966392],[53.222829622788936,26.79954661718267],[53.14942467490886,26.847886459592473],[53.38200931108088,26.803127346150177],[53.3171492851115,26.799994207966392]],[[56.322276237658286,26.83441803636333],[56.341156446412924,26.879339910908186],[56.4041447268977,26.893052475791194],[56.37916100377737,26.838690496868992],[56.322276237658286,26.83441803636333]],[[56.21241295659274,27.002997137407988],[56.28744550920294,26.95514557470858],[56.193532747838105,26.9245466169329],[56.080821160068524,26.78534576989142],[55.9470320967539,26.696275131991797],[55.87663821668042,26.742905991818134],[55.77271569067665,26.688381251793373],[55.68555748808768,26.690497137133207],[55.50294029995496,26.594875393184907],[55.29053795686127,26.54848867411306],[55.28467858235075,26.660223699764003],[55.35189863441451,26.647447007173696],[55.774180535203584,26.79694245033386],[55.78101647183274,26.889634507026926],[55.73259524797237,26.940904039389977],[55.757985872949746,26.954046942212642],[55.89771569132614,26.90680573139946],[56.04102623777072,26.975653387294017],[56.21241295659274,27.002997137407988]],[[56.47299238369163,27.10602448094511],[56.50473066468845,27.061672267561164],[56.43458092536946,27.05483633003263],[56.47299238369163,27.10602448094511]],[[50.30581748528874,29.271275467688724],[50.3346506206297,29.258660858112137],[50.326426628985814,29.208929754604526],[50.28326707761357,29.268939366258792],[50.30581748528874,29.271275467688724]],[[54.54656009217456,25.926499742269357],[54.553233268600536,25.89984772279422],[54.51368248795649,25.902655340571584],[54.54656009217456,25.926499742269357]],[[55.894297721662554,26.67942942892506],[55.889659050025216,26.623765366578482],[55.85320071683964,26.621039130251688],[55.894297721662554,26.67942942892506]],[[53.639414910170046,26.6887881527511],[53.646250846799205,26.65717194213147],[53.60124759170304,26.67959219002762],[53.639414910170046,26.6887881527511]],[[55.04867597741446,25.885768946779535],[55.01840254004526,25.859605209712697],[55.01205488402576,25.88161855665112],[55.04867597741446,25.885768946779535]]]}},{"type":"Feature","properties":{"kind":"world"},"geometry":{"type":"Polygon","coordinates":[[[-180,-85],[-180,85],[180,85],[180,-85],[-180,-85]],[[43.5,24],[43.5,40.5],[64.5,40.5],[64.5,24],[43.5,24]]]}}]}
